{"type": "FeatureCollection", "features": [ {"type": "Feature", "properties": {"norad_id": 67008, "name": "STARLINK-36163", "group": "last-30-days", "lat": 53.647150777984976, "lon": 95.09657603427154, "alt_km": 286.6568446628762, "timestamp": "2025-12-19T06:59:42.653062+00:00", "meta": {"OBJECT_NAME": "STARLINK-36163", "OBJECT_ID": "2025-293F", "EPOCH": "2025-12-18T22:00:00.999936", "MEAN_MOTION": 15.95166755, "ECCENTRICITY": 0.0003928, "INCLINATION": 69.9952, "RA_OF_ASC_NODE": 305.8606, "ARG_OF_PERICENTER": 267.8332, "MEAN_ANOMALY": 222.1153, "EPHEMERIS_TYPE": 0, "CLASSIFICATION_TYPE": "U", "NORAD_CAT_ID": 67008, "ELEMENT_SET_NO": 999, "REV_AT_EPOCH": 130, "BSTAR": -0.0029140861, "MEAN_MOTION_DOT": -0.01141223, "MEAN_MOTION_DDOT": 0.00039836165}, "tle": {"line1": "1 67008U 25293F   25352.91667824 -.01141223  39836-3 -29141-2 0  9999", "line2": "2 67008  69.9952 305.8606 0003928 267.8332 222.1153 15.95166755  1304"}}, "geometry": {"type": "Point", "coordinates": [95.09657603427154, 53.647150777984976]}}, {"type": "Feature", "properties": {"norad_id": 67009, "name": "STARLINK-36118", "group": "last-30-days", "lat": 51.70381403150172, "lon": 97.28737614107227, "alt_km": 286.6149084153076, "timestamp": "2025-12-19T06:59:42.653073+00:00", "meta": {"OBJECT_NAME": "STARLINK-36118", "OBJECT_ID": "2025-293G", "EPOCH": "2025-12-18T22:00:00.999936", "MEAN_MOTION": 15.95236609, "ECCENTRICITY": 0.00038942, "INCLINATION": 69.995, "RA_OF_ASC_NODE": 305.8574, "ARG_OF_PERICENTER": 266.1492, "MEAN_ANOMALY": 226.0626, "EPHEMERIS_TYPE": 0, "CLASSIFICATION_TYPE": "U", "NORAD_CAT_ID": 67009, "ELEMENT_SET_NO": 999, "REV_AT_EPOCH": 130, "BSTAR": -0.0029257533, "MEAN_MOTION_DOT": -0.01149989, "MEAN_MOTION_DDOT": 0.00040431797}, "tle": {"line1": "1 67009U 25293G   25352.91667824 -.01149989  40432-3 -29258-2 0  9990", "line2": "2 67009  69.9950 305.8574 0003894 266.1492 226.0626 15.95236609  1302"}}, "geometry": {"type": "Point", "coordinates": [97.28737614107227, 51.70381403150172]}}, {"type": "Feature", "properties": {"norad_id": 67010, "name": "STARLINK-36189", "group": "last-30-days", "lat": 48.162197180746226, "lon": 100.74548145464723, "alt_km": 286.65355019147046, "timestamp": "2025-12-19T06:59:42.653082+00:00", "meta": {"OBJECT_NAME": "STARLINK-36189", "OBJECT_ID": "2025-293H", "EPOCH": "2025-12-18T22:00:00.999936", "MEAN_MOTION": 15.95360616, "ECCENTRICITY": 0.00038642, "INCLINATION": 69.9951, "RA_OF_ASC_NODE": 305.8517, "ARG_OF_PERICENTER": 266.0131, "MEAN_ANOMALY": 230.2168, "EPHEMERIS_TYPE": 0, "CLASSIFICATION_TYPE": "U", "NORAD_CAT_ID": 67010, "ELEMENT_SET_NO": 999, "REV_AT_EPOCH": 130, "BSTAR": -0.0029371905, "MEAN_MOTION_DOT": -0.01162056, "MEAN_MOTION_DDOT": 0.0004127101}, "tle": {"line1": "1 67010U 25293H   25352.91667824 -.01162056  41271-3 -29372-2 0  9991", "line2": "2 67010  69.9951 305.8517 0003864 266.0131 230.2168 15.95360616  1302"}}, "geometry": {"type": "Point", "coordinates": [100.74548145464723, 48.162197180746226]}}, {"type": "Feature", "properties": {"norad_id": 67011, "name": "STARLINK-36167", "group": "last-30-days", "lat": 50.20391791650272, "lon": 98.82653944389779, "alt_km": 286.63886949373955, "timestamp": "2025-12-19T06:59:42.653095+00:00", "meta": {"OBJECT_NAME": "STARLINK-36167", "OBJECT_ID": "2025-293J", "EPOCH": "2025-12-18T22:00:00.999936", "MEAN_MOTION": 15.95284939, "ECCENTRICITY": 0.00038933, "INCLINATION": 69.9946, "RA_OF_ASC_NODE": 305.8552, "ARG_OF_PERICENTER": 266.4204, "MEAN_ANOMALY": 227.5089, "EPHEMERIS_TYPE": 0, "CLASSIFICATION_TYPE": "U", "NORAD_CAT_ID": 67011, "ELEMENT_SET_NO": 999, "REV_AT_EPOCH": 130, "BSTAR": -0.0029084734, "MEAN_MOTION_DOT": -0.01146196, "MEAN_MOTION_DDOT": 0.00040206325}, "tle": {"line1": "1 67011U 25293J   25352.91667824 -.01146196  40206-3 -29085-2 0  9997", "line2": "2 67011  69.9946 305.8552 0003893 266.4204 227.5089 15.95284939  1307"}}, "geometry": {"type": "Point", "coordinates": [98.82653944389779, 50.20391791650272]}}, {"type": "Feature", "properties": {"norad_id": 67012, "name": "STARLINK-36175", "group": "last-30-days", "lat": 45.75446482156336, "lon": 102.78953731721452, "alt_km": 285.327605609833, "timestamp": "2025-12-19T06:59:42.653105+00:00", "meta": {"OBJECT_NAME": "STARLINK-36175", "OBJECT_ID": "2025-293K", "EPOCH": "2025-12-17T20:00:01.999872", "MEAN_MOTION": 15.97689454, "ECCENTRICITY": 0.00041397, "INCLINATION": 69.9934, "RA_OF_ASC_NODE": 309.0186, "ARG_OF_PERICENTER": 268.0112, "MEAN_ANOMALY": 125.4057, "EPHEMERIS_TYPE": 0, "CLASSIFICATION_TYPE": "U", "NORAD_CAT_ID": 67012, "ELEMENT_SET_NO": 999, "REV_AT_EPOCH": 238, "BSTAR": -0.0021669699, "MEAN_MOTION_DOT": -0.00974747, "MEAN_MOTION_DDOT": 0.00030584746}, "tle": {"line1": "1 67012U 25293K   25351.83335648 -.00974747  30585-3 -21670-2 0  9995", "line2": "2 67012  69.9934 309.0186 0004139 268.0112 125.4057 15.97689454  2387"}}, "geometry": {"type": "Point", "coordinates": [102.78953731721452, 45.75446482156336]}}, {"type": "Feature", "properties": {"norad_id": 67013, "name": "STARLINK-35856", "group": "last-30-days", "lat": 44.44208438887476, "lon": 103.81808926338638, "alt_km": 286.78691860047, "timestamp": "2025-12-19T06:59:42.653116+00:00", "meta": {"OBJECT_NAME": "STARLINK-35856", "OBJECT_ID": "2025-293L", "EPOCH": "2025-12-18T22:00:00.999936", "MEAN_MOTION": 15.95482084, "ECCENTRICITY": 0.00039215, "INCLINATION": 69.9943, "RA_OF_ASC_NODE": 305.8473, "ARG_OF_PERICENTER": 266.793, "MEAN_ANOMALY": 233.5524, "EPHEMERIS_TYPE": 0, "CLASSIFICATION_TYPE": "U", "NORAD_CAT_ID": 67013, "ELEMENT_SET_NO": 999, "REV_AT_EPOCH": 130, "BSTAR": -0.0029177907, "MEAN_MOTION_DOT": -0.0116196, "MEAN_MOTION_DDOT": 0.00041316964}, "tle": {"line1": "1 67013U 25293L   25352.91667824 -.01161960  41317-3 -29178-2 0  9992", "line2": "2 67013  69.9943 305.8473 0003921 266.7930 233.5524 15.95482084  1301"}}, "geometry": {"type": "Point", "coordinates": [103.81808926338638, 44.44208438887476]}}, {"type": "Feature", "properties": {"norad_id": 67014, "name": "STARLINK-36207", "group": "last-30-days", "lat": 42.49794208996055, "lon": 105.2492728139726, "alt_km": 286.9345865425994, "timestamp": "2025-12-19T06:59:42.653126+00:00", "meta": {"OBJECT_NAME": "STARLINK-36207", "OBJECT_ID": "2025-293M", "EPOCH": "2025-12-18T22:00:00.999936", "MEAN_MOTION": 15.95555335, "ECCENTRICITY": 0.00039089, "INCLINATION": 69.995, "RA_OF_ASC_NODE": 305.844, "ARG_OF_PERICENTER": 269.7063, "MEAN_ANOMALY": 232.7503, "EPHEMERIS_TYPE": 0, "CLASSIFICATION_TYPE": "U", "NORAD_CAT_ID": 67014, "ELEMENT_SET_NO": 999, "REV_AT_EPOCH": 130, "BSTAR": -0.0029501054, "MEAN_MOTION_DOT": -0.01179289, "MEAN_MOTION_DDOT": 0.0004249307}, "tle": {"line1": "1 67014U 25293M   25352.91667824 -.01179289  42493-3 -29501-2 0  9992", "line2": "2 67014  69.9950 305.8440 0003908 269.7063 232.7503 15.95555335  1307"}}, "geometry": {"type": "Point", "coordinates": [105.2492728139726, 42.49794208996055]}}, {"type": "Feature", "properties": {"norad_id": 67015, "name": "STARLINK-36093", "group": "last-30-days", "lat": 38.61517589779856, "lon": 107.82676053697205, "alt_km": 286.9437994150685, "timestamp": "2025-12-19T06:59:42.653139+00:00", "meta": {"OBJECT_NAME": "STARLINK-36093", "OBJECT_ID": "2025-293N", "EPOCH": "2025-12-18T22:00:00.999936", "MEAN_MOTION": 15.95679118, "ECCENTRICITY": 0.00039239, "INCLINATION": 69.9946, "RA_OF_ASC_NODE": 305.8388, "ARG_OF_PERICENTER": 266.3082, "MEAN_ANOMALY": 240.3305, "EPHEMERIS_TYPE": 0, "CLASSIFICATION_TYPE": "U", "NORAD_CAT_ID": 67015, "ELEMENT_SET_NO": 999, "REV_AT_EPOCH": 130, "BSTAR": -0.0029377139, "MEAN_MOTION_DOT": -0.01182163, "MEAN_MOTION_DDOT": 0.00042739382}, "tle": {"line1": "1 67015U 25293N   25352.91667824 -.01182163  42739-3 -29377-2 0  9992", "line2": "2 67015  69.9946 305.8388 0003923 266.3082 240.3305 15.95679118  1306"}}, "geometry": {"type": "Point", "coordinates": [107.82676053697205, 38.61517589779856]}}, {"type": "Feature", "properties": {"norad_id": 67016, "name": "STARLINK-36120", "group": "last-30-days", "lat": 40.68559215252705, "lon": 106.49455705644608, "alt_km": 286.86074897591243, "timestamp": "2025-12-19T06:59:42.653152+00:00", "meta": {"OBJECT_NAME": "STARLINK-36120", "OBJECT_ID": "2025-293P", "EPOCH": "2025-12-18T22:00:00.999936", "MEAN_MOTION": 15.95609358, "ECCENTRICITY": 0.00038967, "INCLINATION": 69.9948, "RA_OF_ASC_NODE": 305.8416, "ARG_OF_PERICENTER": 266.1264, "MEAN_ANOMALY": 238.2935, "EPHEMERIS_TYPE": 0, "CLASSIFICATION_TYPE": "U", "NORAD_CAT_ID": 67016, "ELEMENT_SET_NO": 999, "REV_AT_EPOCH": 130, "BSTAR": -0.0029309863, "MEAN_MOTION_DOT": -0.0117509, "MEAN_MOTION_DDOT": 0.00042238204}, "tle": {"line1": "1 67016U 25293P   25352.91667824 -.01175090  42238-3 -29310-2 0  9995", "line2": "2 67016  69.9948 305.8416 0003896 266.1264 238.2935 15.95609358  1304"}}, "geometry": {"type": "Point", "coordinates": [106.49455705644608, 40.68559215252705]}}, {"type": "Feature", "properties": {"norad_id": 67017, "name": "STARLINK-35498", "group": "last-30-days", "lat": 36.67839944152834, "lon": 108.99820848460662, "alt_km": 287.0565506413632, "timestamp": "2025-12-19T06:59:42.653162+00:00", "meta": {"OBJECT_NAME": "STARLINK-35498", "OBJECT_ID": "2025-293Q", "EPOCH": "2025-12-18T22:00:00.999936", "MEAN_MOTION": 15.95743982, "ECCENTRICITY": 0.00039079, "INCLINATION": 69.9944, "RA_OF_ASC_NODE": 305.8373, "ARG_OF_PERICENTER": 267.8178, "MEAN_ANOMALY": 240.8812, "EPHEMERIS_TYPE": 0, "CLASSIFICATION_TYPE": "U", "NORAD_CAT_ID": 67017, "ELEMENT_SET_NO": 999, "REV_AT_EPOCH": 130, "BSTAR": -0.0029415122, "MEAN_MOTION_DOT": -0.01187772, "MEAN_MOTION_DDOT": 0.00043143371}, "tle": {"line1": "1 67017U 25293Q   25352.91667824 -.01187772  43143-3 -29415-2 0  9998", "line2": "2 67017  69.9944 305.8373 0003907 267.8178 240.8812 15.95743982  1303"}}, "geometry": {"type": "Point", "coordinates": [108.99820848460662, 36.67839944152834]}}]}